[{"OBJECT_NAME":"STARLINK-1624","OBJECT_ID":"2020-057P","EPOCH":"2026-03-10T00:00:02.999808","MEAN_MOTION":15.68159276,"ECCENTRICITY":0.00046049,"INCLINATION":53.0462,"RA_OF_ASC_NODE":230.801,"ARG_OF_PERICENTER":319.1645,"MEAN_ANOMALY":185.2819,"EPHEMERIS_TYPE":0,"CLASSIFICATION_TYPE":"U","NORAD_CAT_ID":46130,"ELEMENT_SET_NO":999,"REV_AT_EPOCH":580,"BSTAR":0.0011533861,"MEAN_MOTION_DOT":0.00132696,"MEAN_MOTION_DDOT":0},{"OBJECT_NAME":"STARLINK-11083 [DTC]","OBJECT_ID":"2024-065D","EPOCH":"2026-03-09T10:41:21.591456","MEAN_MOTION":15.69711408,"ECCENTRICITY":0.00010142,"INCLINATION":53.1581,"RA_OF_ASC_NODE":95.1677,"ARG_OF_PERICENTER":92.0634,"MEAN_ANOMALY":268.05,"EPHEMERIS_TYPE":0,"CLASSIFICATION_TYPE":"U","NORAD_CAT_ID":59424,"ELEMENT_SET_NO":999,"REV_AT_EPOCH":11143,"BSTAR":7.582858e-6,"MEAN_MOTION_DOT":3.3e-6,"MEAN_MOTION_DDOT":0}]
